STARLINK-30610          
1 58082U 23160H   26068.35112743 -.00002157  00000+0 -70759-4 0  9991
2 58082  43.0023  79.8267 0001438 246.9548 113.1152 15.26733570132896
NUSAT-45 (UZMASAT-1)    
1 62640U 25009AH  26068.15592621  .00012539  00000+0  48087-3 0  9996
2 62640  97.3985 150.3373 0001172   1.4631 358.6611 15.26632732 63634
